GLOBALSTAR M094         
1 39074U 13005C   25002.36542871 -.00000085  00000+0  10625-3 0  9997
2 39074  51.9978 326.9959 0000233  14.5357 345.5516 12.62266572551436
GLOBALSTAR M096         
1 39075U 13005D   25002.45782688 -.00000081  00000+0  12950-3 0  9999
2 39075  52.0092  15.0995 0000188 188.7455 171.3409 12.62266370550367
GLOBALSTAR M078         
1 39076U 13005E   25002.27247351 -.00000211  00000+0 -60000-3 0  9998
2 39076  51.9878 100.3944 0001441 150.7217 209.3731 12.62266780548966
GLOBALSTAR M095         
1 39077U 13005F   25002.45762839 -.00000088  00000+0  89561-4 0  9997
2 39077  51.9802  97.1126 0001001 159.1715 200.9192 12.62269954548848
GLOBALSTAR M087         
1 52888U 22064A   25002.34762674 -.00000055  00000+0  22136-3 0  9990
2 52888  51.9769 240.7002 0021468  14.2427 345.9053 12.88918691124061
